[{"OBJECT_NAME":"STARLINK-5035","OBJECT_ID":"2022-119M","EPOCH":"2026-03-09T22:44:58.852896","MEAN_MOTION":15.08839439,"ECCENTRICITY":0.00011234,"INCLINATION":53.2187,"RA_OF_ASC_NODE":322.9593,"ARG_OF_PERICENTER":100.2696,"MEAN_ANOMALY":259.8422,"EPHEMERIS_TYPE":0,"CLASSIFICATION_TYPE":"U","NORAD_CAT_ID":53897,"ELEMENT_SET_NO":999,"REV_AT_EPOCH":19172,"BSTAR":5.4099308e-5,"MEAN_MOTION_DOT":5.73e-6,"MEAN_MOTION_DDOT":0},{"OBJECT_NAME":"SL-14 DEB","OBJECT_ID":"1989-080G","EPOCH":"2026-03-09T15:08:26.583936","MEAN_MOTION":13.18681492,"ECCENTRICITY":0.0881405,"INCLINATION":82.6856,"RA_OF_ASC_NODE":122.8071,"ARG_OF_PERICENTER":209.368,"MEAN_ANOMALY":145.5064,"EPHEMERIS_TYPE":0,"CLASSIFICATION_TYPE":"U","NORAD_CAT_ID":20308,"ELEMENT_SET_NO":999,"REV_AT_EPOCH":70613,"BSTAR":0.0010519,"MEAN_MOTION_DOT":3.505e-5,"MEAN_MOTION_DDOT":0}]
